SAUDISAT 1C (SO-50)     
1 27607U 02058C   26167.27867643  .00000856  00000+0  11841-3 0  9998
2 27607  64.5510 131.7962 0075279 262.6422  96.6125 14.83045303264325
SAUDISAT 2              
1 28371U 04025F   26167.27337748  .00000209  00000+0  57791-4 0  9998
2 28371  98.5508 167.2317 0023625 301.2028  58.6853 14.56683498165617
SAUDISAT 3              
1 31118U 07012B   26167.30665721  .00000215  00000+0  42979-4 0  9998
2 31118  98.1456 117.7067 0013588 226.7776 133.2297 14.71425191 27618
PISAT                   
1 41784U 16059B   26167.25850854  .00000726  00000+0  13129-3 0  9997
2 41784  97.8179 167.7512 0028302 205.8139 154.1656 14.68982128519607
FLYING LAPTOP           
1 42831U 17042G   26167.31897397  .00002299  00000+0  18322-3 0  9991
2 42831  97.4680 322.8843 0019538 124.5322 235.7751 15.01139426486324
SALSAT                  
1 46495U 20068K   26166.96813813  .00006820  00000+0  23912-3 0  9999
2 46495  97.8844 169.9584 0008114 313.3675  46.6887 15.29785416315178
